[{"OBJECT_NAME":"OBJECT B","OBJECT_ID":"2024-205B","EPOCH":"2026-03-09T23:46:05.115936","MEAN_MOTION":15.28158697,"ECCENTRICITY":0.00105957,"INCLINATION":97.4192,"RA_OF_ASC_NODE":146.9311,"ARG_OF_PERICENTER":34.0947,"MEAN_ANOMALY":326.0972,"EPHEMERIS_TYPE":0,"CLASSIFICATION_TYPE":"U","NORAD_CAT_ID":61895,"ELEMENT_SET_NO":999,"REV_AT_EPOCH":7352,"BSTAR":0.00054154807,"MEAN_MOTION_DOT":0.00014827,"MEAN_MOTION_DDOT":0},{"OBJECT_NAME":"STARLINK-35756","OBJECT_ID":"2025-303N","EPOCH":"2026-03-09T00:46:39.265824","MEAN_MOTION":15.27573218,"ECCENTRICITY":0.00012467,"INCLINATION":42.9985,"RA_OF_ASC_NODE":314.508,"ARG_OF_PERICENTER":282.7814,"MEAN_ANOMALY":77.2899,"EPHEMERIS_TYPE":0,"CLASSIFICATION_TYPE":"U","NORAD_CAT_ID":67175,"ELEMENT_SET_NO":999,"REV_AT_EPOCH":1263,"BSTAR":0.0014360744,"MEAN_MOTION_DOT":0.00039459,"MEAN_MOTION_DDOT":0}]
